{
  "type": "FeatureCollection",
  "features": [
    {
      "type": "Feature",
      "properties": {
        "norad_id": 38474,
        "name": "IRIDIUM 33 DEB",
        "group": "iridium-33-debris",
        "lat": -84.75189904888767,
        "lon": -34.98679159349614,
        "alt_km": 750.3636003467018,
        "timestamp": "2025-12-14T22:38:41.143091+00:00",
        "meta_object_name": "IRIDIUM 33 DEB",
        "meta_object_id": "1997-051AAB",
        "meta_epoch": "2025-12-13T08:58:04.646496",
        "meta_mean_motion": 14.5069505,
        "meta_eccentricity": 0.00282612,
        "meta_inclination": 86.3454,
        "meta_ra_of_asc_node": 9.789,
        "meta_arg_of_pericenter": 86.1077,
        "meta_mean_anomaly": 274.3358,
        "meta_ephemeris_type": 0,
        "meta_classification_type": "U",
        "meta_norad_cat_id": 38474,
        "meta_element_set_no": 999,
        "meta_rev_at_epoch": 65327,
        "meta_bstar": 0.00084561127,
        "meta_mean_motion_dot": 3.359e-05,
        "meta_mean_motion_ddot": 0,
        "tle_line1": "1 38474U 97051AAB 25347.37366489  .00003359  00000+0  84561-3 0  9991",
        "tle_line2": "2 38474  86.3454   9.7890 0028261  86.1077 274.3358 14.50695050653279"
      },
      "geometry": {
        "type": "Point",
        "coordinates": [
          -34.98679159349614,
          -84.75189904888767
        ]
      }
    },
    {
      "type": "Feature",
      "properties": {
        "norad_id": 39777,
        "name": "IRIDIUM 33 DEB",
        "group": "iridium-33-debris",
        "lat": 5.902295926794279,
        "lon": 174.39164923470403,
        "alt_km": 748.7648918142031,
        "timestamp": "2025-12-14T22:38:41.143101+00:00",
        "meta_object_name": "IRIDIUM 33 DEB",
        "meta_object_id": "1997-051AAJ",
        "meta_epoch": "2025-12-12T06:18:37.183104",
        "meta_mean_motion": 14.5641282,
        "meta_eccentricity": 0.00598335,
        "meta_inclination": 85.9631,
        "meta_ra_of_asc_node": 175.2743,
        "meta_arg_of_pericenter": 188.1374,
        "meta_mean_anomaly": 171.887,
        "meta_ephemeris_type": 0,
        "meta_classification_type": "U",
        "meta_norad_cat_id": 39777,
        "meta_element_set_no": 999,
        "meta_rev_at_epoch": 60178,
        "meta_bstar": 0.0041697031,
        "meta_mean_motion_dot": 0.00019016,
        "meta_mean_motion_ddot": 0,
        "tle_line1": "1 39777U 97051AAJ 25346.26293036  .00019016  00000+0  41697-2 0  9991",
        "tle_line2": "2 39777  85.9631 175.2743 0059833 188.1374 171.8870 14.56412820601783"
      },
      "geometry": {
        "type": "Point",
        "coordinates": [
          174.39164923470403,
          5.902295926794279
        ]
      }
    },
    {
      "type": "Feature",
      "properties": {
        "norad_id": 39778,
        "name": "IRIDIUM 33 DEB",
        "group": "iridium-33-debris",
        "lat": -3.8017345004218694,
        "lon": -137.48975436222335,
        "alt_km": 720.046804378203,
        "timestamp": "2025-12-14T22:38:41.143111+00:00",
        "meta_object_name": "IRIDIUM 33 DEB",
        "meta_object_id": "1997-051AAK",
        "meta_epoch": "2025-12-13T14:25:38.136576",
        "meta_mean_motion": 14.54273042,
        "meta_eccentricity": 0.00079139,
        "meta_inclination": 86.3783,
        "meta_ra_of_asc_node": 42.8516,
        "meta_arg_of_pericenter": 39.4085,
        "meta_mean_anomaly": 320.7696,
        "meta_ephemeris_type": 0,
        "meta_classification_type": "U",
        "meta_norad_cat_id": 39778,
        "meta_element_set_no": 999,
        "meta_rev_at_epoch": 60705,
        "meta_bstar": 0.0010983749,
        "meta_mean_motion_dot": 4.677e-05,
        "meta_mean_motion_ddot": 0,
        "tle_line1": "1 39778U 97051AAK 25347.60113584  .00004677  00000+0  10984-2 0  9992",
        "tle_line2": "2 39778  86.3783  42.8516 0007913  39.4085 320.7696 14.54273042607059"
      },
      "geometry": {
        "type": "Point",
        "coordinates": [
          -137.48975436222335,
          -3.8017345004218694
        ]
      }
    },
    {
      "type": "Feature",
      "properties": {
        "norad_id": 39781,
        "name": "IRIDIUM 33 DEB",
        "group": "iridium-33-debris",
        "lat": 34.6946365752655,
        "lon": -100.41052241770713,
        "alt_km": 898.5063909107157,
        "timestamp": "2025-12-14T22:38:41.143122+00:00",
        "meta_object_name": "IRIDIUM 33 DEB",
        "meta_object_id": "1997-051AAN",
        "meta_epoch": "2025-12-14T00:34:51.097728",
        "meta_mean_motion": 14.20688374,
        "meta_eccentricity": 0.01761815,
        "meta_inclination": 86.3701,
        "meta_ra_of_asc_node": 257.4496,
        "meta_arg_of_pericenter": 269.1921,
        "meta_mean_anomaly": 105.0871,
        "meta_ephemeris_type": 0,
        "meta_classification_type": "U",
        "meta_norad_cat_id": 39781,
        "meta_element_set_no": 999,
        "meta_rev_at_epoch": 8125,
        "meta_bstar": 0.0055357325,
        "meta_mean_motion_dot": 0.00013979,
        "meta_mean_motion_ddot": 0,
        "tle_line1": "1 39781U 97051AAN 25348.02420252  .00013979  00000+0  55357-2 0  9994",
        "tle_line2": "2 39781  86.3701 257.4496 0176181 269.1921 105.0871 14.20688374 81257"
      },
      "geometry": {
        "type": "Point",
        "coordinates": [
          -100.41052241770713,
          34.6946365752655
        ]
      }
    },
    {
      "type": "Feature",
      "properties": {
        "norad_id": 39783,
        "name": "IRIDIUM 33 DEB",
        "group": "iridium-33-debris",
        "lat": 26.13704581178401,
        "lon": 72.22318054610813,
        "alt_km": 458.51055633260694,
        "timestamp": "2025-12-14T22:38:41.143132+00:00",
        "meta_object_name": "IRIDIUM 33 DEB",
        "meta_object_id": "1997-051AAQ",
        "meta_epoch": "2025-11-16T15:05:40.850592",
        "meta_mean_motion": 15.19327111,
        "meta_eccentricity": 0.00057535,
        "meta_inclination": 86.1306,
        "meta_ra_of_asc_node": 268.8004,
        "meta_arg_of_pericenter": 179.9151,
        "meta_mean_anomaly": 1.8316,
        "meta_ephemeris_type": 0,
        "meta_classification_type": "U",
        "meta_norad_cat_id": 39783,
        "meta_element_set_no": 999,
        "meta_rev_at_epoch": 60401,
        "meta_bstar": 0.010398125,
        "meta_mean_motion_dot": 0.00226179,
        "meta_mean_motion_ddot": 0,
        "tle_line1": "1 39783U 97051AAQ 25320.62894503  .00226179  00000+0  10398-1 0  9999",
        "tle_line2": "2 39783  86.1306 268.8004 0005753 179.9151   1.8316 15.19327111604018"
      },
      "geometry": {
        "type": "Point",
        "coordinates": [
          72.22318054610813,
          26.13704581178401
        ]
      }
    },
    {
      "type": "Feature",
      "properties": {
        "norad_id": 40996,
        "name": "IRIDIUM 33 DEB",
        "group": "iridium-33-debris",
        "lat": 81.26217866605946,
        "lon": 24.90396375045331,
        "alt_km": 563.0644618816614,
        "timestamp": "2025-12-14T22:38:41.143143+00:00",
        "meta_object_name": "IRIDIUM 33 DEB",
        "meta_object_id": "1997-051ABJ",
        "meta_epoch": "2025-12-12T07:45:11.152800",
        "meta_mean_motion": 14.96217536,
        "meta_eccentricity": 0.00119593,
        "meta_inclination": 86.3523,
        "meta_ra_of_asc_node": 1.6046,
        "meta_arg_of_pericenter": 64.2736,
        "meta_mean_anomaly": 311.0223,
        "meta_ephemeris_type": 0,
        "meta_classification_type": "U",
        "meta_norad_cat_id": 40996,
        "meta_element_set_no": 999,
        "meta_rev_at_epoch": 62482,
        "meta_bstar": 0.0043106688,
        "meta_mean_motion_dot": 0.00048971,
        "meta_mean_motion_ddot": 0,
        "tle_line1": "1 40996U 97051ABJ 25346.32304575  .00048971  00000+0  43107-2 0  9994",
        "tle_line2": "2 40996  86.3523   1.6046 0011959  64.2736 311.0223 14.96217536624825"
      },
      "geometry": {
        "type": "Point",
        "coordinates": [
          24.90396375045331,
          81.26217866605946
        ]
      }
    },
    {
      "type": "Feature",
      "properties": {
        "norad_id": 40998,
        "name": "IRIDIUM 33 DEB",
        "group": "iridium-33-debris",
        "lat": 49.05581523624062,
        "lon": -131.46681333874932,
        "alt_km": 733.2739699512722,
        "timestamp": "2025-12-14T22:38:41.143153+00:00",
        "meta_object_name": "IRIDIUM 33 DEB",
        "meta_object_id": "1997-051ABL",
        "meta_epoch": "2025-12-13T11:11:31.069248",
        "meta_mean_motion": 14.45102839,
        "meta_eccentricity": 0.00094531,
        "meta_inclination": 86.3828,
        "meta_ra_of_asc_node": 53.3453,
        "meta_arg_of_pericenter": 82.4935,
        "meta_mean_anomaly": 288.1024,
        "meta_ephemeris_type": 0,
        "meta_classification_type": "U",
        "meta_norad_cat_id": 40998,
        "meta_element_set_no": 999,
        "meta_rev_at_epoch": 6692,
        "meta_bstar": 0.0007848107,
        "meta_mean_motion_dot": 2.764e-05,
        "meta_mean_motion_ddot": 0,
        "tle_line1": "1 40998U 97051ABL 25347.46633182  .00002764  00000+0  78481-3 0  9995",
        "tle_line2": "2 40998  86.3828  53.3453 0009453  82.4935 288.1024 14.45102839 66927"
      },
      "geometry": {
        "type": "Point",
        "coordinates": [
          -131.46681333874932,
          49.05581523624062
        ]
      }
    }
  ]
}